{"type": "FeatureCollection", "features": [ {"type": "Feature", "properties": {"norad_id": 46990, "name": "FENGYUN 1C DEB", "group": "fengyun-1c-debris", "lat": -66.41379104252738, "lon": -155.3676885942106, "alt_km": 1030.0864566302434, "timestamp": "2025-12-06T18:50:10.459193+00:00", "meta": {"OBJECT_NAME": "FENGYUN 1C DEB", "OBJECT_ID": "1999-025EZQ", "EPOCH": "2025-12-06T08:10:02.409024", "MEAN_MOTION": 14.23662061, "ECCENTRICITY": 0.03583683, "INCLINATION": 98.2315, "RA_OF_ASC_NODE": 184.8522, "ARG_OF_PERICENTER": 79.2421, "MEAN_ANOMALY": 98.3113, "EPHEMERIS_TYPE": 0, "CLASSIFICATION_TYPE": "U", "NORAD_CAT_ID": 46990, "ELEMENT_SET_NO": 999, "REV_AT_EPOCH": 8438, "BSTAR": 0.0037020871, "MEAN_MOTION_DOT": 0.00016467, "MEAN_MOTION_DDOT": 0}, "tle": {"line1": "1 46990U 99025EZQ 25340.34030566  .00016467  00000+0  37021-2 0  9992", "line2": "2 46990  98.2315 184.8522 0358368  79.2421  98.3113 14.23662061 84385"}}, "geometry": {"type": "Point", "coordinates": [-155.3676885942106, -66.41379104252738]}}, {"type": "Feature", "properties": {"norad_id": 46992, "name": "FENGYUN 1C DEB", "group": "fengyun-1c-debris", "lat": 47.1161750333618, "lon": 157.4058848713897, "alt_km": 850.1499356182021, "timestamp": "2025-12-06T18:50:10.459203+00:00", "meta": {"OBJECT_NAME": "FENGYUN 1C DEB", "OBJECT_ID": "1999-025EZS", "EPOCH": "2025-11-30T16:28:49.931328", "MEAN_MOTION": 14.00675889, "ECCENTRICITY": 0.00717654, "INCLINATION": 98.8954, "RA_OF_ASC_NODE": 321.762, "ARG_OF_PERICENTER": 194.0114, "MEAN_ANOMALY": 165.9062, "EPHEMERIS_TYPE": 0, "CLASSIFICATION_TYPE": "U", "NORAD_CAT_ID": 46992, "ELEMENT_SET_NO": 999, "REV_AT_EPOCH": 60788, "BSTAR": 0.00049604417, "MEAN_MOTION_DOT": 7.12e-06, "MEAN_MOTION_DDOT": 0}, "tle": {"line1": "1 46992U 99025EZS 25334.68668902  .00000712  00000+0  49604-3 0  9992", "line2": "2 46992  98.8954 321.7620 0071765 194.0114 165.9062 14.00675889607888"}}, "geometry": {"type": "Point", "coordinates": [157.4058848713897, 47.1161750333618]}}, {"type": "Feature", "properties": {"norad_id": 46993, "name": "FENGYUN 1C DEB", "group": "fengyun-1c-debris", "lat": -67.55944215826223, "lon": 121.61077360327768, "alt_km": 832.6636982801365, "timestamp": "2025-12-06T18:50:10.459213+00:00", "meta": {"OBJECT_NAME": "FENGYUN 1C DEB", "OBJECT_ID": "1999-025EZT", "EPOCH": "2025-11-27T14:29:20.258016", "MEAN_MOTION": 13.69128576, "ECCENTRICITY": 0.02626499, "INCLINATION": 98.723, "RA_OF_ASC_NODE": 91.4662, "ARG_OF_PERICENTER": 339.6374, "MEAN_ANOMALY": 83.9969, "EPHEMERIS_TYPE": 0, "CLASSIFICATION_TYPE": "U", "NORAD_CAT_ID": 46993, "ELEMENT_SET_NO": 999, "REV_AT_EPOCH": 60050, "BSTAR": 0.00042527912, "MEAN_MOTION_DOT": 4.29e-06, "MEAN_MOTION_DDOT": 0}, "tle": {"line1": "1 46993U 99025EZT 25331.60370669  .00000429  00000+0  42528-3 0  9995", "line2": "2 46993  98.7230  91.4662 0262649 339.6374  83.9969 13.69128576600507"}}, "geometry": {"type": "Point", "coordinates": [121.61077360327768, -67.55944215826223]}}, {"type": "Feature", "properties": {"norad_id": 46995, "name": "FENGYUN 1C DEB", "group": "fengyun-1c-debris", "lat": -78.97831219061841, "lon": 114.23458016888917, "alt_km": 1059.9673290106075, "timestamp": "2025-12-06T18:50:10.459223+00:00", "meta": {"OBJECT_NAME": "FENGYUN 1C DEB", "OBJECT_ID": "1999-025EZV", "EPOCH": "2025-12-02T04:23:06.408384", "MEAN_MOTION": 13.86224088, "ECCENTRICITY": 0.01921313, "INCLINATION": 98.5974, "RA_OF_ASC_NODE": 59.0441, "ARG_OF_PERICENTER": 146.7857, "MEAN_ANOMALY": 214.5535, "EPHEMERIS_TYPE": 0, "CLASSIFICATION_TYPE": "U", "NORAD_CAT_ID": 46995, "ELEMENT_SET_NO": 999, "REV_AT_EPOCH": 60322, "BSTAR": 0.0031893895, "MEAN_MOTION_DOT": 4.221e-05, "MEAN_MOTION_DDOT": 0}, "tle": {"line1": "1 46995U 99025EZV 25336.18271306  .00004221  00000+0  31894-2 0  9990", "line2": "2 46995  98.5974  59.0441 0192131 146.7857 214.5535 13.86224088603225"}}, "geometry": {"type": "Point", "coordinates": [114.23458016888917, -78.97831219061841]}}, {"type": "Feature", "properties": {"norad_id": 46997, "name": "FENGYUN 1C DEB", "group": "fengyun-1c-debris", "lat": 65.00799714553904, "lon": 2.3959652690994075, "alt_km": 786.6625615743806, "timestamp": "2025-12-06T18:50:10.459233+00:00", "meta": {"OBJECT_NAME": "FENGYUN 1C DEB", "OBJECT_ID": "1999-025EZX", "EPOCH": "2025-12-05T21:29:55.692672", "MEAN_MOTION": 14.27942614, "ECCENTRICITY": 0.00249135, "INCLINATION": 98.5588, "RA_OF_ASC_NODE": 20.3738, "ARG_OF_PERICENTER": 357.0536, "MEAN_ANOMALY": 181.4476, "EPHEMERIS_TYPE": 0, "CLASSIFICATION_TYPE": "U", "NORAD_CAT_ID": 46997, "ELEMENT_SET_NO": 999, "REV_AT_EPOCH": 62353, "BSTAR": 0.001888595, "MEAN_MOTION_DOT": 4.655e-05, "MEAN_MOTION_DDOT": 0}, "tle": {"line1": "1 46997U 99025EZX 25339.89578348  .00004655  00000+0  18886-2 0  9996", "line2": "2 46997  98.5588  20.3738 0024913 357.0536 181.4476 14.27942614623531"}}, "geometry": {"type": "Point", "coordinates": [2.3959652690994075, 65.00799714553904]}}, {"type": "Feature", "properties": {"norad_id": 47001, "name": "FENGYUN 1C DEB", "group": "fengyun-1c-debris", "lat": -45.14265274940054, "lon": -151.1577382531866, "alt_km": 805.2176881115984, "timestamp": "2025-12-06T18:50:10.459243+00:00", "meta": {"OBJECT_NAME": "FENGYUN 1C DEB", "OBJECT_ID": "1999-025FAB", "EPOCH": "2025-12-04T09:01:49.792800", "MEAN_MOTION": 14.38345772, "ECCENTRICITY": 0.0052258, "INCLINATION": 99.3061, "RA_OF_ASC_NODE": 35.7191, "ARG_OF_PERICENTER": 74.0796, "MEAN_ANOMALY": 286.6138, "EPHEMERIS_TYPE": 0, "CLASSIFICATION_TYPE": "U", "NORAD_CAT_ID": 47001, "ELEMENT_SET_NO": 999, "REV_AT_EPOCH": 73794, "BSTAR": 0.0037257, "MEAN_MOTION_DOT": 0.00011498, "MEAN_MOTION_DDOT": 0}, "tle": {"line1": "1 47001U 99025FAB 25338.37627075  .00011498  00000+0  37257-2 0  9993", "line2": "2 47001  99.3061  35.7191 0052258  74.0796 286.6138 14.38345772737941"}}, "geometry": {"type": "Point", "coordinates": [-151.1577382531866, -45.14265274940054]}}, {"type": "Feature", "properties": {"norad_id": 47005, "name": "FENGYUN 1C DEB", "group": "fengyun-1c-debris", "lat": 11.082580124393528, "lon": -108.79482045006336, "alt_km": 856.8836830333858, "timestamp": "2025-12-06T18:50:10.459252+00:00", "meta": {"OBJECT_NAME": "FENGYUN 1C DEB", "OBJECT_ID": "1999-025FAF", "EPOCH": "2025-12-03T11:49:12.815616", "MEAN_MOTION": 14.10913141, "ECCENTRICITY": 0.00635736, "INCLINATION": 99.6019, "RA_OF_ASC_NODE": 65.7889, "ARG_OF_PERICENTER": 267.3996, "MEAN_ANOMALY": 108.1197, "EPHEMERIS_TYPE": 0, "CLASSIFICATION_TYPE": "U", "NORAD_CAT_ID": 47005, "ELEMENT_SET_NO": 999, "REV_AT_EPOCH": 82637, "BSTAR": 0.0032335345, "MEAN_MOTION_DOT": 5.865e-05, "MEAN_MOTION_DDOT": 0}, "tle": {"line1": "1 47005U 99025FAF 25337.49250944  .00005865  00000+0  32335-2 0  9999", "line2": "2 47005  99.6019  65.7889 0063573 267.3996 108.1197 14.10913141826379"}}, "geometry": {"type": "Point", "coordinates": [-108.79482045006336, 11.082580124393528]}}, {"type": "Feature", "properties": {"norad_id": 47007, "name": "FENGYUN 1C DEB", "group": "fengyun-1c-debris", "lat": -56.88513367248259, "lon": 10.60825203610009, "alt_km": 1077.8612543966701, "timestamp": "2025-12-06T18:50:10.459289+00:00", "meta": {"OBJECT_NAME": "FENGYUN 1C DEB", "OBJECT_ID": "1999-025FAH", "EPOCH": "2025-12-02T20:54:11.445984", "MEAN_MOTION": 13.97102442, "ECCENTRICITY": 0.02354948, "INCLINATION": 98.2081, "RA_OF_ASC_NODE": 199.8928, "ARG_OF_PERICENTER": 81.4238, "MEAN_ANOMALY": 281.3533, "EPHEMERIS_TYPE": 0, "CLASSIFICATION_TYPE": "U", "NORAD_CAT_ID": 47007, "ELEMENT_SET_NO": 999, "REV_AT_EPOCH": 78711, "BSTAR": 0.0027434055, "MEAN_MOTION_DOT": 4.814e-05, "MEAN_MOTION_DDOT": 0}, "tle": {"line1": "1 47007U 99025FAH 25336.87096581  .00004814  00000+0  27434-2 0  9994", "line2": "2 47007  98.2081 199.8928 0235494  81.4238 281.3533 13.97102442787119"}}, "geometry": {"type": "Point", "coordinates": [10.60825203610009, -56.88513367248259]}}, {"type": "Feature", "properties": {"norad_id": 47009, "name": "FENGYUN 1C DEB", "group": "fengyun-1c-debris", "lat": 28.937033396451408, "lon": -39.67431793541245, "alt_km": 1222.1514960163795, "timestamp": "2025-12-06T18:50:10.459301+00:00", "meta": {"OBJECT_NAME": "FENGYUN 1C DEB", "OBJECT_ID": "1999-025FAK", "EPOCH": "2025-12-02T05:09:31.123584", "MEAN_MOTION": 13.37303446, "ECCENTRICITY": 0.0352227, "INCLINATION": 98.9376, "RA_OF_ASC_NODE": 321.2954, "ARG_OF_PERICENTER": 285.6992, "MEAN_ANOMALY": 70.555, "EPHEMERIS_TYPE": 0, "CLASSIFICATION_TYPE": "U", "NORAD_CAT_ID": 47009, "ELEMENT_SET_NO": 999, "REV_AT_EPOCH": 58668, "BSTAR": 0.00057132, "MEAN_MOTION_DOT": 3.87e-06, "MEAN_MOTION_DDOT": 0}, "tle": {"line1": "1 47009U 99025FAK 25336.21494356  .00000387  00000+0  57132-3 0  9996", "line2": "2 47009  98.9376 321.2954 0352227 285.6992  70.5550 13.37303446586681"}}, "geometry": {"type": "Point", "coordinates": [-39.67431793541245, 28.937033396451408]}}, {"type": "Feature", "properties": {"norad_id": 47012, "name": "FENGYUN 1C DEB", "group": "fengyun-1c-debris", "lat": -81.03477476580862, "lon": -37.902934276669264, "alt_km": 1097.6683462429055, "timestamp": "2025-12-06T18:50:10.459311+00:00", "meta": {"OBJECT_NAME": "FENGYUN 1C DEB", "OBJECT_ID": "1999-025FAN", "EPOCH": "2025-12-05T22:22:36.481152", "MEAN_MOTION": 13.77908149, "ECCENTRICITY": 0.01638485, "INCLINATION": 98.755, "RA_OF_ASC_NODE": 218.9381, "ARG_OF_PERICENTER": 81.7177, "MEAN_ANOMALY": 280.2518, "EPHEMERIS_TYPE": 0, "CLASSIFICATION_TYPE": "U", "NORAD_CAT_ID": 47012, "ELEMENT_SET_NO": 999, "REV_AT_EPOCH": 54479, "BSTAR": 0.00065808903, "MEAN_MOTION_DOT": 6.91e-06, "MEAN_MOTION_DDOT": 0}, "tle": {"line1": "1 47012U 99025FAN 25339.93236668  .00000691  00000+0  65809-3 0  9990", "line2": "2 47012  98.7550 218.9381 0163848  81.7177 280.2518 13.77908149544797"}}, "geometry": {"type": "Point", "coordinates": [-37.902934276669264, -81.03477476580862]}}]}